[{"OBJECT_NAME":"STELLA","OBJECT_ID":"1993-061B","EPOCH":"2026-03-09T22:50:14.153280","MEAN_MOTION":14.2746756,"ECCENTRICITY":0.00067535,"INCLINATION":98.784,"RA_OF_ASC_NODE":132.7988,"ARG_OF_PERICENTER":156.9855,"MEAN_ANOMALY":327.7404,"EPHEMERIS_TYPE":0,"CLASSIFICATION_TYPE":"U","NORAD_CAT_ID":22824,"ELEMENT_SET_NO":999,"REV_AT_EPOCH":69061,"BSTAR":7.617075e-6,"MEAN_MOTION_DOT":-2.6e-7,"MEAN_MOTION_DDOT":0},{"OBJECT_NAME":"FENGYUN 1C DEB","OBJECT_ID":"1999-025FCC","EPOCH":"2026-03-04T07:53:01.068576","MEAN_MOTION":14.19515193,"ECCENTRICITY":0.00417591,"INCLINATION":98.9008,"RA_OF_ASC_NODE":98.3093,"ARG_OF_PERICENTER":102.158,"MEAN_ANOMALY":258.4278,"EPHEMERIS_TYPE":0,"CLASSIFICATION_TYPE":"U","NORAD_CAT_ID":47104,"ELEMENT_SET_NO":999,"REV_AT_EPOCH":63530,"BSTAR":0.00027902194,"MEAN_MOTION_DOT":5.48e-6,"MEAN_MOTION_DDOT":0}]
